satname,norad_id,inclination_deg,eccentricity,mean_motion_rev_per_day,perigee_km,apogee_km,l1,l2
STARLINK-1451,45668,53.0543,0.0003216,15.07765641,540.8033773560983,545.2550714716408,1 45668U 20035M   26027.01849694  .00029379  00000+0  19111-2 0  9991,2 45668  53.0543 253.8673 0003216 120.6273 239.5034 15.07765641312451
STARLINK-1452,45669,53.0335,0.0004878,15.37426225,450.3908373642107,457.05600038886587,1 45669U 20035N   26027.25092940  .00046846  00000+0  12603-2 0  9999,2 45669  53.0335 218.1138 0004878 172.3033 187.8045 15.37426225312973
STARLINK-1453,45670,53.0514,0.0006078,15.43426574,431.86356450969924,440.1468357681888,1 45670U 20035P   26027.91668981  .00192209  00000+0  41351-2 0  9995,2 45670  53.0514 208.4405 0006078 174.1883 237.5341 15.43426574  5773
STARLINK-1454,45671,53.0669,0.000129,15.40677983,443.22707262766653,444.9872116163342,1 45671U 20035Q   26027.91668981  .01079088  00000+0  23876-1 0  9997,2 45671  53.0669 247.5488 0001290  86.6586 280.2708 15.40677983  5836
STARLINK-1456,45673,53.0525,0.0006701,15.41057055,438.41749486942626,447.5591670379699,1 45673U 20035S   26027.91668981  .00145306  00000+0  34063-2 0  9996,2 45673  53.0525 240.8367 0006701 143.1137 337.2719 15.41057055  5618
STARLINK-1457,45674,53.0507,1.47e-05,15.65123557,372.7841946786166,372.98267467939513,1 45674U 20035T   26027.91668981  .00241532  00000+0  23373-2 0  9997,2 45674  53.0507 224.8072 0000147  25.4033 254.2105 15.65123557  5961
STARLINK-1458,45675,53.0528,0.0001628,15.31032803,471.61427591300253,473.84491807698487,1 45675U 20035U   26027.91668981  .01708559  00000+0  50743-1 0  9996,2 45675  53.0528 248.1685 0001628  87.5501 260.4897 15.31032803  5679
STARLINK-1460,45676,53.054,0.000144,15.0641286,546.17489965409,548.169388687611,1 45676U 20035V   26026.96904246  .00003036  00000+0  22256-3 0  9995,2 45676  53.0540 253.9087 0001440  84.6341 275.4812 15.06412860312408
STARLINK-1392,45677,53.0489,0.0001321,15.06376557,546.3685602527285,548.1982563245983,1 45677U 20035W   26027.64358285 -.00003249  00000+0 -19946-3 0  9998,2 45677  53.0489 250.8760 0001321 108.7837 251.3296 15.06376557312547
STARLINK-1394,45679,53.0529,0.0006218,15.41414714,437.69241998612415,446.173859211729,1 45679U 20035Y   26027.00002315  .00152962  00000+0  35397-2 0  9992,2 45679  53.0529 235.1086 0006218 139.7644  97.4785 15.41414714  5932
STARLINK-1402,45685,53.0488,0.0010498,15.37766986,445.54308476837923,459.8851397636936,1 45685U 20035AE  26027.55177675  .00101335  00000+0  26618-2 0  9995,2 45685  53.0488 218.3048 0010498 127.2279 232.9683 15.37766986313004
STARLINK-1404,45686,53.1403,0.0001634,15.2580297,487.25333868832604,489.49731491672446,1 45686U 20035AF  26027.91668981  .01065823  00000+0  37643-1 0  9992,2 45686  53.1403 238.9746 0001634  69.4404 225.4935 15.25802970  5629
STARLINK-1413,45689,53.1415,0.0001035,15.26332018,486.07802926860677,487.4990688572634,1 45689U 20035AJ  26027.91668981  .01526384  00000+0  52890-1 0  9990,2 45689  53.1415 238.9135 0001035 100.4408 126.3171 15.26332018  5681
STARLINK-1417,45693,53.0514,0.0007784,15.10039809,530.6964559746657,541.4605066359609,1 45693U 20035AN  26027.59608972  .00029126  00000+0  17800-2 0  9997,2 45693  53.0514 240.1965 0007784 116.2012 243.9780 15.10039809312682
STARLINK-1420,45695,53.0544,8.73e-05,15.39401339,447.28255577068103,448.47437807120514,1 45695U 20035AQ  26027.91668981  .01490249  00000+0  33849-1 0  9990,2 45695  53.0544 217.6625 0000873  93.2140  40.7737 15.39401339  5784
STARLINK-1422,45696,53.1264,0.0002022,15.22932516,495.6105600073288,498.39086569840583,1 45696U 20035AR  26027.83335647  .00773971  00000+0  30165-1 0  9995,2 45696  53.1264 239.1444 0002022  96.8992  77.8554 15.22932516  5578
STARLINK-1351,45697,53.0561,0.0001727,15.36947914,453.96065956428356,456.320873704879,1 45697U 20035AS  26027.83335647  .01535783  00000+0  38263-1 0  9991,2 45697  53.0561 217.1034 0001727  89.3784 153.4908 15.36947914  5674
STARLINK-1398,45699,53.0411,0.000288,15.74278302,344.7488924983227,348.6223903397795,1 45699U 20035AU  26027.83335647  .00199886  00000+0  13315-2 0  9994,2 45699  53.0411 145.3861 0002880 271.4903 205.8244 15.74278302  5886
STARLINK-1400,45700,53.0663,0.0001199,15.39405971,447.04633652884604,448.68321175428537,1 45700U 20035AV  26027.83335647  .01082521  00000+0  24963-1 0  9995,2 45700  53.0663 217.9984 0001199  87.4299 190.0872 15.39405971  5815
STARLINK-1403,45701,53.0548,0.0001452,15.06397763,546.2128524234586,548.223975635693,1 45701U 20035AW  26027.53945730  .00000649  00000+0  62436-4 0  9993,2 45701  53.0548 221.3503 0001452  86.4082 273.7073 15.06397763312945
STARLINK-1407,45703,53.0355,0.0009084,15.52664775,402.78395753318637,415.11473600799945,1 45703U 20035AY  26027.83335647  .00165136  00000+0  25833-2 0  9999,2 45703  53.0355 153.6900 0009084 322.7558 294.8169 15.52664775  5854
STARLINK-1411,45706,53.0455,0.0001138,15.54785206,402.00541287712986,403.5487489219431,1 45706U 20035BB  26027.83689750  .00089174  00000+0  13092-2 0  9990,2 45706  53.0455 179.9188 0001138 300.3469  59.7429 15.54785206313553
STARLINK-1423,45710,53.0706,6.31e-05,15.40387597,444.5339738875882,445.3950492983513,1 45710U 20035BF  26027.83335647  .01080807  00000+0  24137-1 0  9994,2 45710  53.0706 217.6293 0000631  83.7886  84.7648 15.40387597  5720
STARLINK-1433,45711,53.0537,0.0001118,15.44595498,431.80544389268016,433.32831728037945,1 45711U 20035BG  26027.83335647  .01257100  00000+0  24054-1 0  9995,2 45711  53.0537 217.3118 0001118  87.5981 342.9449 15.44595498  5728
STARLINK-1434,45712,53.052,0.0003592,15.22014561,497.2942408131221,502.235325454124,1 45712U 20035BH  26027.52963022  .00089984  00000+0  38557-2 0  9992,2 45712  53.0520 210.0452 0003592  96.3411 263.7994 15.22014561313119
STARLINK-1465,45731,53.0543,0.000134,15.35214276,459.36776169468976,461.2004585522036,1 45731U 20038B   26027.83335647  .01614142  00000+0  42300-1 0  9997,2 45731  53.0543  58.0464 0001340  66.5741 167.8368 15.35214276  5714
STARLINK-1471,45735,53.0506,0.0003221,15.45410062,427.98049574816287,432.3664093416919,1 45735U 20038F   26027.11707024  .00032302  00000+0  67086-3 0  9995,2 45735  53.0506 340.7488 0003221  93.7949 266.3425 15.45410062311098
STARLINK-1474,45738,53.0263,0.000548,15.92834379,290.69897201266303,298.01202379036386,1 45738U 20038J   26027.83335647  .00252703  35303-4  72019-3 0  9995,2 45738  53.0263 272.5978 0005480 174.7463  30.5131 15.92834379  5949
STARLINK-1480,45741,53.0543,0.0007701,15.40949047,438.0538701089863,448.56025825664074,1 45741U 20038M   26027.83335647  .00116139  00000+0  27440-2 0  9999,2 45741  53.0543  51.7761 0007701  33.2957 266.1591 15.40949047  5901
STARLINK-1500,45744,53.0385,0.000415,15.32374775,465.8878147181049,471.57071371740585,1 45744U 20038Q   26027.22953259  .00033422  00000+0  10611-2 0  9995,2 45744  53.0385  26.8762 0004150  91.9694 268.1781 15.32374775310459
STARLINK-1504,45746,53.0259,0.0004513,15.50308401,412.7587949935514,418.89102501352045,1 45746U 20038S   26027.85235965  .00040257  00000+0  70272-3 0  9997,2 45746  53.0259 338.7717 0004513  77.4856 282.6656 15.50308401311173
STARLINK-1506,45747,53.0799,0.0004704,15.2481834,488.0995802099542,494.56237568360575,1 45747U 20038T   26027.71400631  .00017796  00000+0  71943-3 0  9995,2 45747  53.0799  31.7120 0004704  99.1858 260.9671 15.24818340310439
STARLINK-1464,45751,53.0632,0.0001257,15.35973968,457.16976489579974,458.88837704604066,1 45751U 20038X   26027.83335647  .01100353  00000+0  28303-1 0  9990,2 45751  53.0632  38.1782 0001257  88.5558 166.1900 15.35973968  5820
STARLINK-1477,45754,53.0517,9.98e-05,15.11686578,530.3666576168898,531.7457325786318,1 45754U 20038AA  26027.34973583  .00048339  00000+0  28058-2 0  9998,2 45754  53.0517  40.4874 0000998 260.0590 100.0289 15.11686578310274
STARLINK-1478,45755,53.0547,0.0003486,15.46181929,425.5348330719107,430.28000724164303,1 45755U 20038AB  26027.83335647  .00156994  00000+0  30921-2 0  9995,2 45755  53.0547  34.1881 0003486  70.4510 241.4140 15.46181929  5833
STARLINK-1484,45756,53.0067,0.0004215,15.81254253,324.0664941019986,329.7188341088395,1 45756U 20038AC  26027.83335647  .00156826  00000+0  76966-3 0  9990,2 45756  53.0067 264.8711 0004215 153.3606  87.0430 15.81254253  5750
STARLINK-1493,45759,53.0536,9.41e-05,15.29818861,475.7083104973808,476.99832557523587,1 45759U 20038AF  26027.83335647  .01792939  00000+0  54985-1 0  9990,2 45759  53.0536  38.7179 0000941  78.0717 142.0926 15.29818861  5810
STARLINK-1494,45760,53.0526,0.0001985,15.66258759,368.281581686334,370.96044161695954,1 45760U 20038AG  26027.17760489  .00093357  00000+0  88246-3 0  9991,2 45760  53.0526 356.7992 0001985 105.5268 254.5966 15.66258759310876
STARLINK-1502,45764,53.0556,0.0001215,15.22826335,496.4849262161906,498.1556623387005,1 45764U 20038AL  26027.83335647  .00783174  00000+0  30587-1 0  9998,2 45764  53.0556  39.1607 0001215  93.5606  80.7322 15.22826335  5820
STARLINK-1470,45772,53.0483,7.89e-05,15.24334058,492.24374163579614,493.32797326270156,1 45772U 20038AU  26027.21894317  .00016219  00000+0  66659-3 0  9993,2 45772  53.0483   6.2398 0000789 114.6805 245.4274 15.24334058310745
STARLINK-1482,45773,53.0758,8.62e-05,15.11614157,530.6812801673432,531.8724631188143,1 45773U 20038AV  26027.83335647  .01219592  00000+0  65789-1 0  9999,2 45773  53.0758  19.9675 0000862  98.6760 210.2255 15.11614157  5717
STARLINK-1496,45780,53.0558,0.0006952,15.40568286,439.68794340538534,449.1740419423995,1 45780U 20038BC  26027.83335647  .00158082  00000+0  37589-2 0  9990,2 45780  53.0558  12.2296 0006952  61.7114  67.6867 15.40568286  5747
STARLINK-1497,45781,53.0271,0.0007151,15.95951043,280.9004340667934,290.43100471606704,1 45781U 20038BD  26027.83335647  .00490615  10966-3  11756-2 0  9996,2 45781  53.0271 284.8473 0007151 143.9884 179.8424 15.95951043  6027
